{
  "norad_id": 57890,
  "name": "YAOGAN-39 02C",
  "history": [
    {
      "epoch": "2026-03-28T22:54:31.857696Z",
      "apogee_km": 518.5507059606243,
      "perigee_km": 511.22231908305093,
      "latitude_deg": -3.112696036465149e-05,
      "longitude_deg": -165.350353576485,
      "height_km": 511.3789349569592,
      "semi_major_axis_km": 6893.023512521837,
      "eccentricity": 0.00053158,
      "inclination_deg": 34.9953,
      "raan_deg": 4.65,
      "arg_perigee_deg": 48.8104,
      "mean_anomaly_deg": 311.3066,
      "mean_motion_rev_day": 15.17008877
    },
    {
      "epoch": "2026-03-29T03:38:50.132832Z",
      "apogee_km": 518.5222214653486,
      "perigee_km": 511.2280360307068,
      "latitude_deg": 2.8524589277900568e-05,
      "longitude_deg": 122.1486852457583,
      "height_km": 511.4790062908441,
      "semi_major_axis_km": 6893.012128748027,
      "eccentricity": 0.0005291,
      "inclination_deg": 34.9954,
      "raan_deg": 3.4197,
      "arg_perigee_deg": 50.8737,
      "mean_anomaly_deg": 309.2446,
      "mean_motion_rev_day": 15.17012635
    },
    {
      "epoch": "2026-03-30T04:55:06.789216Z",
      "apogee_km": 518.3573979860766,
      "perigee_km": 511.2590429980146,
      "latitude_deg": -1.6892891415730148e-05,
      "longitude_deg": 95.47956465382664,
      "height_km": 512.0243720303006,
      "semi_major_axis_km": 6892.945220492045,
      "eccentricity": 0.0005149,
      "inclination_deg": 34.9955,
      "raan_deg": 356.8579,
      "arg_perigee_deg": 61.5939,
      "mean_anomaly_deg": 298.5292,
      "mean_motion_rev_day": 15.17034723
    }
  ]
}